{"spkid": "50843394", "covariance": {"data": [["1.683235888047953E-14", "-1.745482082459915E-14", "1.00726029059925E-12", "4.161847996712562E-14", "7.606827811175081E-13", "7.210226934874519E-14"], ["-1.745482082459915E-14", "1.810327479979405E-14", "-1.048500310898492E-12", "-4.381846178702003E-14", "-7.893675023945929E-13", "-7.238378598775842E-14"], ["1.00726029059925E-12", "-1.048500310898492E-12", "9.513222563871403E-11", "1.039591747274611E-11", "5.790879461160877E-11", "-2.934451699989415E-12"], ["4.161847996712562E-14", "-4.381846178702003E-14", "1.039591747274611E-11", "1.931252318727018E-11", "-1.154731478844993E-11", "-6.578070365770357E-12"], ["7.606827811175081E-13", "-7.893675023945929E-13", "5.790879461160877E-11", "-1.154731478844993E-11", "5.636740862647688E-11", "6.027497094339985E-12"], ["7.210226934874519E-14", "-7.238378598775842E-14", "-2.934451699989415E-12", "-6.578070365770357E-12", "6.027497094339985E-12", "2.143497447904316E-11"]], "elements": [{"title": "eccentricity", "value": ".3801266369817045", "units": null, "name": "e", "sigma": 1.29739581009342e-07, "label": "e"}, {"label": "q", "name": "q", "sigma": 1.34548410617867e-07, "value": ".5945838150155514", "title": "perihelion distance", "units": "au"}, {"label": "tp", "title": "time of perihelion passage", "value": "2459290.161950564148", "units": "TDB", "sigma": 9.75357501835681e-06, "name": "tp"}, {"sigma": 4.39460159596637e-06, "name": "om", "units": "deg", "title": "longitude of the ascending node", "value": "236.8706736197512", "label": "node"}, {"label": "peri", "units": "deg", "value": "297.6959686257687", "title": "argument of perihelion", "sigma": 7.50782316164125e-06, "name": "w"}, {"title": "inclination", "value": "18.28092174839443", "units": "deg", "sigma": 4.6297920557022e-06, "name": "i", "label": "i"}], "labels": ["e", "q", "tp", "node", "peri", "i"], "epoch": "2459181.5"}, "elements": [{"name": "e", "sigma": "1.3035E-7", "units": null, "title": "eccentricity", "value": ".3800799834494001", "label": "e"}, {"label": "a", "units": "au", "value": ".9598309285057532", "title": "semi-major axis", "sigma": "1.5139E-8", "name": "a"}, {"sigma": "1.3437E-7", "name": "q", "value": ".5950184050850642", "title": "perihelion distance", "units": "au", "label": "q"}, {"label": "i", "name": "i", "sigma": "4.6277E-6", "units": "deg", "title": "inclination; angle with respect to x-y ecliptic plane", "value": "18.28015506696839"}, {"name": "om", "sigma": "4.391E-6", "units": "deg", "value": "236.8262465600127", "title": "longitude of the ascending node", "label": "node"}, {"label": "peri", "sigma": "7.6705E-6", "name": "w", "title": "argument of perihelion", "value": "297.6644141041", "units": "deg"}, {"title": "mean anomaly", "value": "203.1648039695591", "units": "deg", "name": "ma", "sigma": "4.1433E-5", "label": "M"}, {"name": "tp", "sigma": "4.3035E-5", "units": "TDB", "title": "time of perihelion passage", "value": "2461350.134441585560", "label": "tp"}, {"sigma": "8.1262E-6", "name": "per", "value": "343.4713657025432", "title": "sidereal orbital period", "units": "d", "label": "period"}, {"name": "n", "sigma": "2.4798E-8", "title": "mean motion", "value": "1.0481223063927", "units": "deg/d", "label": "n"}, {"sigma": "2.0893E-8", "name": "ad", "value": "1.324643451926442", "title": "aphelion distance", "units": "au", "label": "Q"}], "epoch": "2461200.5"}